{
  "type": "FeatureCollection",
  "features": [
    {
      "type": "Feature",
      "properties": {
        "norad_id": 55973,
        "name": "TIANMU-1 03",
        "group": "weather",
        "lat": 10.682900604866477,
        "lon": 139.90865670996638,
        "alt_km": 445.0748712687255,
        "timestamp": "2025-12-04T21:36:15.516826+00:00",
        "meta_object_name": "TIANMU-1 03",
        "meta_object_id": "2023-039A",
        "meta_epoch": "2025-12-04T15:19:19.863840",
        "meta_mean_motion": 15.40566082,
        "meta_eccentricity": 0.0004544,
        "meta_inclination": 97.5102,
        "meta_ra_of_asc_node": 141.0659,
        "meta_arg_of_pericenter": 84.309,
        "meta_mean_anomaly": 275.8674,
        "meta_ephemeris_type": 0,
        "meta_classification_type": "U",
        "meta_norad_cat_id": 55973,
        "meta_element_set_no": 999,
        "meta_rev_at_epoch": 15081,
        "meta_bstar": 0.00071332958,
        "meta_mean_motion_dot": 0.0002899,
        "meta_mean_motion_ddot": 0,
        "tle_line1": "1 55973U 23039A   25338.63842435  .00028990  00000+0  71333-3 0  9999",
        "tle_line2": "2 55973  97.5102 141.0659 0004544  84.3090 275.8674 15.40566082150813"
      },
      "geometry": {
        "type": "Point",
        "coordinates": [
          139.90865670996638,
          10.682900604866477
        ]
      }
    },
    {
      "type": "Feature",
      "properties": {
        "norad_id": 55974,
        "name": "TIANMU-1 04",
        "group": "weather",
        "lat": 63.404495654871326,
        "lon": -24.20720858738819,
        "alt_km": 434.3829410760791,
        "timestamp": "2025-12-04T21:36:15.516837+00:00",
        "meta_object_name": "TIANMU-1 04",
        "meta_object_id": "2023-039B",
        "meta_epoch": "2025-12-04T14:52:15.236256",
        "meta_mean_motion": 15.4089534,
        "meta_eccentricity": 0.00052219,
        "meta_inclination": 97.5034,
        "meta_ra_of_asc_node": 140.241,
        "meta_arg_of_pericenter": 80.5395,
        "meta_mean_anomaly": 279.6441,
        "meta_ephemeris_type": 0,
        "meta_classification_type": "U",
        "meta_norad_cat_id": 55974,
        "meta_element_set_no": 999,
        "meta_rev_at_epoch": 15081,
        "meta_bstar": 0.00073194518,
        "meta_mean_motion_dot": 0.00030082,
        "meta_mean_motion_ddot": 0,
        "tle_line1": "1 55974U 23039B   25338.61962079  .00030082  00000+0  73195-3 0  9998",
        "tle_line2": "2 55974  97.5034 140.2410 0005221  80.5395 279.6441 15.40895340150819"
      },
      "geometry": {
        "type": "Point",
        "coordinates": [
          -24.20720858738819,
          63.404495654871326
        ]
      }
    },
    {
      "type": "Feature",
      "properties": {
        "norad_id": 55975,
        "name": "TIANMU-1 05",
        "group": "weather",
        "lat": 21.659721875837946,
        "lon": -35.97658944570352,
        "alt_km": 442.85751556089235,
        "timestamp": "2025-12-04T21:36:15.516847+00:00",
        "meta_object_name": "TIANMU-1 05",
        "meta_object_id": "2023-039C",
        "meta_epoch": "2025-12-04T16:14:38.999328",
        "meta_mean_motion": 15.40525319,
        "meta_eccentricity": 0.00043174,
        "meta_inclination": 97.5081,
        "meta_ra_of_asc_node": 140.7917,
        "meta_arg_of_pericenter": 101.1778,
        "meta_mean_anomaly": 258.9954,
        "meta_ephemeris_type": 0,
        "meta_classification_type": "U",
        "meta_norad_cat_id": 55975,
        "meta_element_set_no": 999,
        "meta_rev_at_epoch": 15080,
        "meta_bstar": 0.00071295367,
        "meta_mean_motion_dot": 0.00028935,
        "meta_mean_motion_ddot": 0,
        "tle_line1": "1 55975U 23039C   25338.67684027  .00028935  00000+0  71295-3 0  9992",
        "tle_line2": "2 55975  97.5081 140.7917 0004317 101.1778 258.9954 15.40525319150803"
      },
      "geometry": {
        "type": "Point",
        "coordinates": [
          -35.97658944570352,
          21.659721875837946
        ]
      }
    },
    {
      "type": "Feature",
      "properties": {
        "norad_id": 55976,
        "name": "TIANMU-1 06",
        "group": "weather",
        "lat": 75.87575818076752,
        "lon": -6.9048585627446,
        "alt_km": 432.9182643801669,
        "timestamp": "2025-12-04T21:36:15.516857+00:00",
        "meta_object_name": "TIANMU-1 06",
        "meta_object_id": "2023-039D",
        "meta_epoch": "2025-12-04T16:29:17.543904",
        "meta_mean_motion": 15.4095133,
        "meta_eccentricity": 0.00046799,
        "meta_inclination": 97.5092,
        "meta_ra_of_asc_node": 141.2607,
        "meta_arg_of_pericenter": 96.6771,
        "meta_mean_anomaly": 263.5008,
        "meta_ephemeris_type": 0,
        "meta_classification_type": "U",
        "meta_norad_cat_id": 55976,
        "meta_element_set_no": 999,
        "meta_rev_at_epoch": 15082,
        "meta_bstar": 0.00071027371,
        "meta_mean_motion_dot": 0.00029237,
        "meta_mean_motion_ddot": 0,
        "tle_line1": "1 55976U 23039D   25338.68700861  .00029237  00000+0  71027-3 0  9998",
        "tle_line2": "2 55976  97.5092 141.2607 0004679  96.6771 263.5008 15.40951330150820"
      },
      "geometry": {
        "type": "Point",
        "coordinates": [
          -6.9048585627446,
          75.87575818076752
        ]
      }
    },
    {
      "type": "Feature",
      "properties": {
        "norad_id": 56232,
        "name": "FENGYUN 3G",
        "group": "weather",
        "lat": 31.949799589252148,
        "lon": 56.30302027636752,
        "alt_km": 398.18005190593067,
        "timestamp": "2025-12-04T21:36:15.516869+00:00",
        "meta_object_name": "FENGYUN 3G",
        "meta_object_id": "2023-055A",
        "meta_epoch": "2025-12-04T14:50:37.925664",
        "meta_mean_motion": 15.52916271,
        "meta_eccentricity": 0.00092059,
        "meta_inclination": 49.9949,
        "meta_ra_of_asc_node": 269.3417,
        "meta_arg_of_pericenter": 109.5556,
        "meta_mean_anomaly": 250.6406,
        "meta_ephemeris_type": 0,
        "meta_classification_type": "U",
        "meta_norad_cat_id": 56232,
        "meta_element_set_no": 999,
        "meta_rev_at_epoch": 14976,
        "meta_bstar": 0.00094024716,
        "meta_mean_motion_dot": 0.00059721,
        "meta_mean_motion_ddot": 0,
        "tle_line1": "1 56232U 23055A   25338.61849451  .00059721  00000+0  94025-3 0  9998",
        "tle_line2": "2 56232  49.9949 269.3417 0009205 109.5556 250.6406 15.52916271149762"
      },
      "geometry": {
        "type": "Point",
        "coordinates": [
          56.30302027636752,
          31.949799589252148
        ]
      }
    },
    {
      "type": "Feature",
      "properties": {
        "norad_id": 57166,
        "name": "METEOR-M2 3",
        "group": "weather",
        "lat": 39.97636607882966,
        "lon": 25.253224070496874,
        "alt_km": 805.5576435584107,
        "timestamp": "2025-12-04T21:36:15.516881+00:00",
        "meta_object_name": "METEOR-M2 3",
        "meta_object_id": "2023-091A",
        "meta_epoch": "2025-12-04T14:40:10.196832",
        "meta_mean_motion": 14.24024627,
        "meta_eccentricity": 0.00043442,
        "meta_inclination": 98.639,
        "meta_ra_of_asc_node": 32.2922,
        "meta_arg_of_pericenter": 30.7762,
        "meta_mean_anomaly": 329.3671,
        "meta_ephemeris_type": 0,
        "meta_classification_type": "U",
        "meta_norad_cat_id": 57166,
        "meta_element_set_no": 999,
        "meta_rev_at_epoch": 12682,
        "meta_bstar": 5.2317742e-05,
        "meta_mean_motion_dot": 7.7e-07,
        "meta_mean_motion_ddot": 0,
        "tle_line1": "1 57166U 23091A   25338.61122913  .00000077  00000+0  52318-4 0  9992",
        "tle_line2": "2 57166  98.6390  32.2922 0004344  30.7762 329.3671 14.24024627126824"
      },
      "geometry": {
        "type": "Point",
        "coordinates": [
          25.253224070496874,
          39.97636607882966
        ]
      }
    },
    {
      "type": "Feature",
      "properties": {
        "norad_id": 57399,
        "name": "TIANMU-1 07",
        "group": "weather",
        "lat": 1.1145061695239284,
        "lon": -150.93318085692164,
        "alt_km": 484.2207065143166,
        "timestamp": "2025-12-04T21:36:15.516891+00:00",
        "meta_object_name": "TIANMU-1 07",
        "meta_object_id": "2023-101A",
        "meta_epoch": "2025-12-04T14:32:15.879840",
        "meta_mean_motion": 15.2789197,
        "meta_eccentricity": 0.00056288,
        "meta_inclination": 97.2891,
        "meta_ra_of_asc_node": 28.6362,
        "meta_arg_of_pericenter": 102.0717,
        "meta_mean_anomaly": 258.1154,
        "meta_ephemeris_type": 0,
        "meta_classification_type": "U",
        "meta_norad_cat_id": 57399,
        "meta_element_set_no": 999,
        "meta_rev_at_epoch": 13191,
        "meta_bstar": 0.00059743113,
        "meta_mean_motion_dot": 0.00016219,
        "meta_mean_motion_ddot": 0,
        "tle_line1": "1 57399U 23101A   25338.60573935  .00016219  00000+0  59743-3 0  9998",
        "tle_line2": "2 57399  97.2891  28.6362 0005628 102.0717 258.1154 15.27891970131917"
      },
      "geometry": {
        "type": "Point",
        "coordinates": [
          -150.93318085692164,
          1.1145061695239284
        ]
      }
    }
  ]
}